55153,ONEWEB-0588,2023,109.2,148.0,+,87.91,Active,1,LEO,USA,UK,Commercial,Communications,Falcon,1 55153U 23004P   24258.86143892  .00000156  00000+0  36254-3 0  9994,2 55153  87.9064 102.9702 0002280  76.0698 284.0688 13.18687212 85305,13.18687212,0.000228,LEO
55154,ONEWEB-0598,2023,109.8,148.0,+,87.9,Active,1,LEO,USA,UK,Commercial,Communications,Falcon,1 55154U 23004Q   24259.10663978 -.00000731  00000+0 -20986-2 0  9990,2 55154  87.8974 148.5689 0002361  86.5587 273.5811 13.11415101 82013,13.11415101,0.0002361,LEO
55155,ONEWEB-0599,2023,109.29,148.0,+,87.92,Active,1,LEO,USA,UK,Commercial,Communications,Falcon,1 55155U 23004R   24259.11079819  .00000082  00000+0  17865-3 0  9997,2 55155  87.9150 133.3559 0001752  83.9496 276.1835 13.17648630 83198,13.1764863,0.0001752,LEO
55156,ONEWEB-0614,2023,109.81,148.0,+,87.9,Active,1,LEO,USA,UK,Commercial,Communications,Falcon,1 55156U 23004S   24258.94895811 -.00000345  00000+0 -10091-2 0  9993,2 55156  87.8978 148.6054 0001813  61.6393 298.4918 13.11413711 81924,13.11413711,0.0001813,LEO
55157,ONEWEB-0616,2023,109.29,148.0,+,87.91,Active,1,LEO,USA,UK,Commercial,Communications,Falcon,1 55157U 23004T   24258.92500112  .00000130  00000+0  30185-3 0  9996,2 55157  87.9140 133.3964 0001333 119.6115 240.5150 13.17651496 83389,13.17651496,0.0001333,LEO
55158,ONEWEB-0617,2023,109.8,148.0,+,87.9,Active,1,LEO,USA,UK,Commercial,Communications,Falcon,1 55158U 23004U   24258.93709313  .00000092  00000+0  22270-3 0  9995,2 55158  87.8971 148.5991 0002049  65.3001 294.8340 13.11416799 81947,13.11416799,0.0002049,LEO
55159,ONEWEB-0618,2023,100.91,148.0,P,86.9,Active,1,LEO,USA,UK,Commercial,Communications,Falcon,1 55159U 23004V   24258.87221565  .00004944  00000+0  20202-2 0  9999,2 55159  86.9027  61.4958 0013269   3.3606 356.7673 14.27083449 88130,14.27083449,0.0013269,LEO
55160,ONEWEB-0619,2023,109.29,148.0,+,87.91,Active,1,LEO,USA,UK,Commercial,Communications,Falcon,1 55160U 23004W   24259.10917609  .00000178  00000+0  42425-3 0  9996,2 55160  87.9144 133.3372 0001259  60.8152 299.3105 13.17653464 83306,13.17653464,0.0001259,LEO
